OBJECT_NAME,OBJECT_ID,EPOCH,MEAN_MOTION,ECCENTRICITY,INCLINATION,RA_OF_ASC_NODE,ARG_OF_PERICENTER,MEAN_ANOMALY,EPHEMERIS_TYPE,CLASSIFICATION_TYPE,NORAD_CAT_ID,ELEMENT_SET_NO,REV_AT_EPOCH,BSTAR,MEAN_MOTION_DOT,MEAN_MOTION_DDOT
QB50P1,2014-033R,2026-06-20T07:31:29.445600,15.18299167,.0008083,98.0964,182.6784,203.9686,156.1171,0,U,40025,999,65350,.34929E-3,.7093E-4,0
DTUSAT-2,2014-033W,2026-06-19T22:41:58.542144,15.15045561,.00069372,98.0865,168.8476,214.2385,145.8399,0,U,40030,999,65310,.32259506E-3,.596E-4,0
QB50P2,2014-033Y,2026-06-19T22:33:22.217472,15.15188064,.00082462,98.0755,167.9914,155.0319,205.1312,0,U,40032,999,65308,.33724334E-3,.6262E-4,0
PERSEUS-M1,2014-033AF,2026-06-20T09:09:02.884032,14.95639538,.0010078,97.9641,115.5653,289.2139,70.7991,0,U,40039,999,65111,.1372E-3,.1465E-4,0
POLYITAN-1,2014-033AJ,2026-06-19T14:20:20.047200,15.33326342,.00087612,98.0942,197.0866,134.5443,225.6514,0,U,40042,999,65396,.47013999E-3,.15082E-3,0
TIGRISAT,2014-033AK,2026-06-20T08:23:42.471168,14.85172276,.0050483,97.7835,321.2886,65.0761,295.5688,0,U,40043,999,64609,.17429E-3,.1472E-4,0
AISAT,2014-034B,2026-06-20T06:43:49.653120,15.08877124,.0008272,98.2385,83.9127,200.1433,159.9469,0,U,40054,999,64767,.50465E-3,.7888E-4,0
CANX-4,2014-034C,2026-06-20T09:27:48.747744,14.81269424,.0012926,98.3118,46.8251,7.0319,353.1072,0,U,40055,999,64500,.90911E-4,.652E-5,0
CANX-5,2014-034D,2026-06-20T11:02:46.426848,14.81286790,.0012919,98.3120,46.9372,7.0403,353.0987,0,U,40056,999,63582,.9127E-4,.655E-5,0
VELOX-I,2014-034E,2026-06-21T12:49:00.204960,14.97908733,.0006223,98.2519,77.7827,253.2833,106.7705,0,U,40057,999,64725,.33412E-3,.3872E-4,0
GONETS-M 10,2014-036C,2026-06-21T11:56:31.617888,12.42945856,.0022805,82.5120,304.9968,131.5842,228.7198,0,U,40063,999,54278,.51274E-3,.81E-6,0
METEOR-M 2,2014-037A,2026-06-21T12:14:05.340192,14.21461368,.0006595,98.5120,148.0953,33.6763,326.4832,0,U,40069,999,61993,-.56554E-4,-.166E-5,0
DX1,2014-037C,2026-06-21T12:36:05.328288,14.89998725,.000555,98.3874,134.4901,257.8136,102.2458,0,U,40071,999,64675,.19406E-3,.1809E-4,0
UKUBE-1,2014-037F,2026-06-19T22:40:36.544224,15.13591351,.00028071,98.4240,174.5065,127.2512,232.8973,0,U,40074,999,64897,.40346435E-3,.7166E-4,0
GAOFEN-2,2014-049A,2026-06-21T12:00:58.262976,14.80903184,.0006386,98.0103,236.7043,210.2228,149.8617,0,U,40118,999,63987,.82406E-4,.583E-5,0
BRITE-PL2 (HEWELIUSZ),2014-049B,2026-06-20T07:39:17.958240,14.94603402,.0015385,97.9101,283.3430,99.1118,261.1844,0,U,40119,999,64191,.16422E-3,.1722E-4,0
CBERS 4,2014-079A,2026-06-21T11:57:18.840672,14.35510713,.0001695,98.3525,229.1950,60.3510,299.7845,0,U,40336,999,60457,.11719E-3,.295E-5,0
SMAP,2015-003A,2026-06-20T10:19:40.581120,14.63368901,.0001362,98.1276,178.4790,97.1421,262.9936,0,U,40376,999,60809,.67443E-4,.302E-5,0
GONETS-M 11,2015-020A,2026-06-21T12:23:22.152768,12.42877756,.0016398,82.4865,28.2934,356.5971,3.4994,0,U,40552,999,50927,.47045E-3,.75E-6,0
GONETS-M 12,2015-020B,2026-06-21T13:41:02.503968,12.42891736,.0015102,82.4898,29.3848,341.4208,18.6318,0,U,40553,999,50927,.70325E-3,.107E-5,0
GONETS-M 13,2015-020C,2026-06-21T13:02:57.725088,12.42871117,.0013446,82.4860,28.0150,326.6294,33.3937,0,U,40554,999,50924,.644E-3,.99E-6,0
DMC3-FM1,2015-032A,2026-06-21T13:59:29.591232,14.85743079,.0006752,97.6453,37.5846,48.9691,311.2108,0,U,40715,999,59056,.9077E-4,.737E-5,0
DMC3-FM2,2015-032B,2026-06-21T12:54:14.483232,14.85750020,.0007444,97.6509,39.1179,52.9093,307.2802,0,U,40716,999,59055,.86748E-4,.702E-5,0
DMC3-FM3,2015-032C,2026-06-21T13:27:52.585920,14.85735864,.0006592,97.6560,40.8963,53.3530,306.8291,0,U,40717,999,59056,-.12501E-4,-.16E-5,0
CARBONITE 1 (CBNT-1),2015-032D,2026-06-21T11:58:35.142240,14.83595427,.0013047,97.6513,350.3842,282.3309,77.6445,0,U,40718,999,58998,.1002E-3,.776E-5,0
DEORBITSAIL,2015-032E,2026-06-20T08:25:39.651168,15.03893694,.0012015,97.5890,28.1176,220.2626,139.7711,0,U,40719,999,59172,.49992E-3,.684E-4,0
2015-049G,2015-049G,2026-06-21T12:29:02.802912,15.66752809,.0005853,97.4551,216.8548,178.5073,181.6205,0,U,40905,999,59712,.34581E-3,.36362E-3,0
LILACSAT-2,2015-049K,2026-06-21T12:41:44.445696,15.51567178,.0005819,97.4642,209.5359,224.7343,135.3440,0,U,40908,999,59642,.25303E-3,.14906E-3,0
COSMOS 2507 (RODNIK-S 13),2015-050A,2026-06-21T11:57:44.542080,12.42926769,.0009999,82.4921,76.9859,347.7636,12.3200,0,U,40920,999,48739,-.34969E-3,-.39E-6,0
COSMOS 2508 (RODNIK-S 14),2015-050B,2026-06-21T12:48:56.791296,12.42914559,.0015003,82.4873,75.4673,17.9857,342.1751,0,U,40921,999,48738,.24603E-3,.44E-6,0
COSMOS 2509 (RODNIK-S 15),2015-050C,2026-06-21T11:22:28.403040,12.42883826,.0015596,82.4882,75.6074,34.3581,325.8504,0,U,40922,999,48741,-.49943E-4,.3E-7,0
