[
  {
    "name": "QB50P1",
    "line1": "1 40025U 14033R   26171.31353525  .00007093  00000+0  34929-3 0  9994",
    "line2": "2 40025  98.0964 182.6784 0008083 203.9686 156.1171 15.18299167653508"
  },
  {
    "name": "LILACSAT-2",
    "line1": "1 40908U 15049K   26172.52898664  .00014906  00000+0  25303-3 0  9991",
    "line2": "2 40908  97.4642 209.5359 0005819 224.7343 135.3440 15.51567178596428"
  },
  {
    "name": "DTUSAT-2",
    "line1": "1 40030U 14033W   26170.94581646  .00005960  00000+0  32260-3 0  9992",
    "line2": "2 40030  98.0865 168.8476 0006937 214.2385 145.8399 15.15045561653102"
  },
  {
    "name": "QB50P2",
    "line1": "1 40032U 14033Y   26170.93984048  .00006262  00000+0  33724-3 0  9998",
    "line2": "2 40032  98.0755 167.9914 0008246 155.0319 205.1312 15.15188064653081"
  },
  {
    "name": "PERSEUS-M1",
    "line1": "1 40039U 14033AF  26171.38128338  .00001465  00000+0  13720-3 0  9991",
    "line2": "2 40039  97.9641 115.5653 0010078 289.2139  70.7991 14.95639538651110"
  },
  {
    "name": "POLYITAN-1",
    "line1": "1 40042U 14033AJ  26170.59745425  .00015082  00000+0  47014-3 0  9992",
    "line2": "2 40042  98.0942 197.0866 0008761 134.5443 225.6514 15.33326342653963"
  },
  {
    "name": "TIGRISAT",
    "line1": "1 40043U 14033AK  26171.34979712  .00001472  00000+0  17429-3 0  9990",
    "line2": "2 40043  97.7835 321.2886 0050483  65.0761 295.5688 14.85172276646098"
  },
  {
    "name": "AISAT",
    "line1": "1 40054U 14034B   26171.28043580  .00007888  00000+0  50465-3 0  9995",
    "line2": "2 40054  98.2385  83.9127 0008272 200.1433 159.9469 15.08877124647678"
  },
  {
    "name": "CANX-4",
    "line1": "1 40055U 14034C   26171.39431421  .00000652  00000+0  90911-4 0  9996",
    "line2": "2 40055  98.3118  46.8251 0012926   7.0319 353.1072 14.81269424645009"
  },
  {
    "name": "CANX-5",
    "line1": "1 40056U 14034D   26171.46025957  .00000655  00000+0  91270-4 0  9990",
    "line2": "2 40056  98.3120  46.9372 0012919   7.0403 353.0987 14.81286790635822"
  },
  {
    "name": "VELOX-I",
    "line1": "1 40057U 14034E   26172.53403015  .00003872  00000+0  33412-3 0  9992",
    "line2": "2 40057  98.2519  77.7827 0006223 253.2833 106.7705 14.97908733647250"
  },
  {
    "name": "GONETS-M 10",
    "line1": "1 40063U 14036C   26172.49758817  .00000081  00000+0  51274-3 0  9994",
    "line2": "2 40063  82.5120 304.9968 0022805 131.5842 228.7198 12.42945856542782"
  },
  {
    "name": "METEOR-M 2",
    "line1": "1 40069U 14037A   26172.50978403 -.00000166  00000+0 -56554-4 0  9991",
    "line2": "2 40069  98.5120 148.0953 0006595  33.6763 326.4832 14.21461368619931"
  },
  {
    "name": "DX1",
    "line1": "1 40071U 14037C   26172.52506167  .00001809  00000+0  19406-3 0  9997",
    "line2": "2 40071  98.3874 134.4901 0005550 257.8136 102.2458 14.89998725646754"
  },
  {
    "name": "UKUBE-1",
    "line1": "1 40074U 14037F   26170.94486741  .00007166  00000+0  40346-3 0  9998",
    "line2": "2 40074  98.4240 174.5065 0002807 127.2512 232.8973 15.13591351648971"
  },
  {
    "name": "GAOFEN-2",
    "line1": "1 40118U 14049A   26172.50067434  .00000583  00000+0  82406-4 0  9998",
    "line2": "2 40118  98.0103 236.7043 0006386 210.2228 149.8617 14.80903184639879"
  },
  {
    "name": "BRITE-PL2 (HEWELIUSZ)",
    "line1": "1 40119U 14049B   26171.31895785  .00001722  00000+0  16422-3 0  9995",
    "line2": "2 40119  97.9101 283.3430 0015385  99.1118 261.1844 14.94603402641918"
  },
  {
    "name": "CBERS 4",
    "line1": "1 40336U 14079A   26172.49813473  .00000295  00000+0  11719-3 0  9991",
    "line2": "2 40336  98.3525 229.1950 0001695  60.3510 299.7845 14.35510713604570"
  },
  {
    "name": "SMAP",
    "line1": "1 40376U 15003A   26171.43033080  .00000302  00000+0  67443-4 0  9999",
    "line2": "2 40376  98.1276 178.4790 0001362  97.1421 262.9936 14.63368901608098"
  },
  {
    "name": "GONETS-M 11",
    "line1": "1 40552U 15020A   26172.51622862  .00000075  00000+0  47045-3 0  9998",
    "line2": "2 40552  82.4865  28.2934 0016398 356.5971   3.4994 12.42877756509273"
  },
  {
    "name": "GONETS-M 12",
    "line1": "1 40553U 15020B   26172.57016787  .00000107  00000+0  70325-3 0  9991",
    "line2": "2 40553  82.4898  29.3848 0015102 341.4208  18.6318 12.42891736509276"
  },
  {
    "name": "GONETS-M 13",
    "line1": "1 40554U 15020C   26172.54372367  .00000099  00000+0  64400-3 0  9995",
    "line2": "2 40554  82.4860  28.0150 0013446 326.6294  33.3937 12.42871117509246"
  },
  {
    "name": "DMC3-FM1",
    "line1": "1 40715U 15032A   26172.58298138  .00000737  00000+0  90770-4 0  9993",
    "line2": "2 40715  97.6453  37.5846 0006752  48.9691 311.2108 14.85743079590562"
  },
  {
    "name": "DMC3-FM2",
    "line1": "1 40716U 15032B   26172.53766763  .00000702  00000+0  86748-4 0  9995",
    "line2": "2 40716  97.6509  39.1179 0007444  52.9093 307.2802 14.85750020590551"
  },
  {
    "name": "DMC3-FM3",
    "line1": "1 40717U 15032C   26172.56102530 -.00000160  00000+0 -12501-4 0  9991",
    "line2": "2 40717  97.6560  40.8963 0006592  53.3530 306.8291 14.85735864590560"
  },
  {
    "name": "CARBONITE 1 (CBNT-1)",
    "line1": "1 40718U 15032D   26172.49901785  .00000776  00000+0  10020-3 0  9997",
    "line2": "2 40718  97.6513 350.3842 0013047 282.3309  77.6445 14.83595427589980"
  },
  {
    "name": "DEORBITSAIL",
    "line1": "1 40719U 15032E   26171.35115337  .00006840  00000+0  49992-3 0  9990",
    "line2": "2 40719  97.5890  28.1176 0012015 220.2626 139.7711 15.03893694591726"
  },
  {
    "name": "2015-049G",
    "line1": "1 40905U 15049G   26172.52017133  .00036362  00000+0  34581-3 0  9990",
    "line2": "2 40905  97.4551 216.8548 0005853 178.5073 181.6205 15.66752809597123"
  },
  {
    "name": "COSMOS 2507 (RODNIK-S *)",
    "line1": "1 40920U 15050A   26172.49843220 -.00000039  00000+0 -34969-3 0  9993",
    "line2": "2 40920  82.4921  76.9859 0009999 347.7636  12.3200 12.42926769487396"
  },
  {
    "name": "COSMOS 2508 (RODNIK-S *)",
    "line1": "1 40921U 15050B   26172.53399064  .00000044  00000+0  24603-3 0  9999",
    "line2": "2 40921  82.4873  75.4673 0015003  17.9857 342.1751 12.42914559487383"
  },
  {
    "name": "COSMOS 2509 (RODNIK-S *)",
    "line1": "1 40922U 15050C   26172.47393985  .00000003  00000+0 -49943-4 0  9990",
    "line2": "2 40922  82.4882  75.6074 0015596  34.3581 325.8504 12.42883826487415"
  }
]